[
  {
    "OBJECT_NAME": "STARLINK-11519 [DTC]",
    "OBJECT_ID": "25006G",
    "EPOCH": "2025-11-10T21:20:10.227264",
    "MEAN_MOTION": 15.70943538,
    "ECCENTRICITY": 0.0001712,
    "INCLINATION": 43.0002,
    "RA_OF_ASC_NODE": 136.389,
    "ARG_OF_PERICENTER": 270.3276,
    "MEAN_ANOMALY": 89.7396,
    "EPHEMERIS_TYPE": 0,
    "CLASSIFICATION_TYPE": "U",
    "NORAD_CAT_ID": 62560,
    "ELEMENT_SET_NO": 999,
    "REV_AT_EPOCH": 4791,
    "BSTAR": 0.0026508,
    "MEAN_MOTION_DOT": 0.00356222,
    "MEAN_MOTION_DDOT": 0.0,
    "TLE_LINE1": "1 62560U 25006G   25314.88900726  .00356222  00000+0  26508-2 0  9999",
    "TLE_LINE2": "2 62560  43.0002 136.3890 0001712 270.3276  89.7396 15.70943538 47916",
    "COMMENT": "Grouped by shell and plane from TLE"
  },
  {
    "OBJECT_NAME": "STARLINK-11451 [DTC]",
    "OBJECT_ID": "25006H",
    "EPOCH": "2025-11-10T20:17:41.068608",
    "MEAN_MOTION": 15.70902942,
    "ECCENTRICITY": 0.000209,
    "INCLINATION": 43.0,
    "RA_OF_ASC_NODE": 136.0392,
    "ARG_OF_PERICENTER": 275.8165,
    "MEAN_ANOMALY": 84.2465,
    "EPHEMERIS_TYPE": 0,
    "CLASSIFICATION_TYPE": "U",
    "NORAD_CAT_ID": 62561,
    "ELEMENT_SET_NO": 999,
    "REV_AT_EPOCH": 4791,
    "BSTAR": 0.00099992,
    "MEAN_MOTION_DOT": 0.00130231,
    "MEAN_MOTION_DDOT": 0.0,
    "TLE_LINE1": "1 62561U 25006H   25314.84561422  .00130231  00000+0  99992-3 0  9990",
    "TLE_LINE2": "2 62561  43.0000 136.0392 0002090 275.8165  84.2465 15.70902942 47917",
    "COMMENT": "Grouped by shell and plane from TLE"
  },
  {
    "OBJECT_NAME": "STARLINK-11530 [DTC]",
    "OBJECT_ID": "25006J",
    "EPOCH": "2025-11-11T04:56:39.452352",
    "MEAN_MOTION": 15.71073902,
    "ECCENTRICITY": 0.0001574,
    "INCLINATION": 42.9996,
    "RA_OF_ASC_NODE": 134.4645,
    "ARG_OF_PERICENTER": 299.0694,
    "MEAN_ANOMALY": 61.0016,
    "EPHEMERIS_TYPE": 0,
    "CLASSIFICATION_TYPE": "U",
    "NORAD_CAT_ID": 62562,
    "ELEMENT_SET_NO": 999,
    "REV_AT_EPOCH": 4796,
    "BSTAR": 0.0028076,
    "MEAN_MOTION_DOT": 0.00380516,
    "MEAN_MOTION_DDOT": 0.0,
    "TLE_LINE1": "1 62562U 25006J   25315.20601218  .00380516  00000+0  28076-2 0  9997",
    "TLE_LINE2": "2 62562  42.9996 134.4645 0001574 299.0694  61.0016 15.71073902 47960",
    "COMMENT": "Grouped by shell and plane from TLE"
  },
  {
    "OBJECT_NAME": "STARLINK-11536 [DTC]",
    "OBJECT_ID": "25006K",
    "EPOCH": "2025-11-10T21:56:53.216448",
    "MEAN_MOTION": 15.70939703,
    "ECCENTRICITY": 0.0003032,
    "INCLINATION": 42.9998,
    "RA_OF_ASC_NODE": 135.6988,
    "ARG_OF_PERICENTER": 278.5968,
    "MEAN_ANOMALY": 81.4556,
    "EPHEMERIS_TYPE": 0,
    "CLASSIFICATION_TYPE": "U",
    "NORAD_CAT_ID": 62563,
    "ELEMENT_SET_NO": 999,
    "REV_AT_EPOCH": 4792,
    "BSTAR": 0.0019419,
    "MEAN_MOTION_DOT": 0.00257695,
    "MEAN_MOTION_DDOT": 0.0,
    "TLE_LINE1": "1 62563U 25006K   25314.91450482  .00257695  00000+0  19419-2 0  9992",
    "TLE_LINE2": "2 62563  42.9998 135.6988 0003032 278.5968  81.4556 15.70939703 47923",
    "COMMENT": "Grouped by shell and plane from TLE"
  },
  {
    "OBJECT_NAME": "STARLINK-11540 [DTC]",
    "OBJECT_ID": "25006L",
    "EPOCH": "2025-11-10T13:18:07.178400",
    "MEAN_MOTION": 15.70997416,
    "ECCENTRICITY": 0.0002159,
    "INCLINATION": 42.9993,
    "RA_OF_ASC_NODE": 138.1674,
    "ARG_OF_PERICENTER": 250.766,
    "MEAN_ANOMALY": 109.2975,
    "EPHEMERIS_TYPE": 0,
    "CLASSIFICATION_TYPE": "U",
    "NORAD_CAT_ID": 62564,
    "ELEMENT_SET_NO": 999,
    "REV_AT_EPOCH": 4786,
    "BSTAR": 0.0020408,
    "MEAN_MOTION_DOT": 0.00271954,
    "MEAN_MOTION_DDOT": 0.0,
    "TLE_LINE1": "1 62564U 25006L   25314.55424975  .00271954  00000+0  20408-2 0  9995",
    "TLE_LINE2": "2 62564  42.9993 138.1674 0002159 250.7660 109.2975 15.70997416 47861",
    "COMMENT": "Grouped by shell and plane from TLE"
  },
  {
    "OBJECT_NAME": "STARLINK-11523 [DTC]",
    "OBJECT_ID": "25006M",
    "EPOCH": "2025-11-10T21:03:33.494400",
    "MEAN_MOTION": 15.70908613,
    "ECCENTRICITY": 0.0002427,
    "INCLINATION": 43.0005,
    "RA_OF_ASC_NODE": 136.2942,
    "ARG_OF_PERICENTER": 280.5098,
    "MEAN_ANOMALY": 79.5496,
    "EPHEMERIS_TYPE": 0,
    "CLASSIFICATION_TYPE": "U",
    "NORAD_CAT_ID": 62565,
    "ELEMENT_SET_NO": 999,
    "REV_AT_EPOCH": 4791,
    "BSTAR": 0.0013929,
    "MEAN_MOTION_DOT": 0.00182801,
    "MEAN_MOTION_DDOT": 0.0,
    "TLE_LINE1": "1 62565U 25006M   25314.87747100  .00182801  00000+0  13929-2 0  9991",
    "TLE_LINE2": "2 62565  43.0005 136.2942 0002427 280.5098  79.5496 15.70908613 47913",
    "COMMENT": "Grouped by shell and plane from TLE"
  },
  {
    "OBJECT_NAME": "STARLINK-11525 [DTC]",
    "OBJECT_ID": "25006N",
    "EPOCH": "2025-11-11T05:04:17.391360",
    "MEAN_MOTION": 15.70834189,
    "ECCENTRICITY": 0.0002252,
    "INCLINATION": 42.9998,
    "RA_OF_ASC_NODE": 134.5047,
    "ARG_OF_PERICENTER": 270.3322,
    "MEAN_ANOMALY": 89.7288,
    "EPHEMERIS_TYPE": 0,
    "CLASSIFICATION_TYPE": "U",
    "NORAD_CAT_ID": 62566,
    "ELEMENT_SET_NO": 999,
    "REV_AT_EPOCH": 4796,
    "BSTAR": 0.0,
    "MEAN_MOTION_DOT": -0.00014973,
    "MEAN_MOTION_DDOT": 0.0,
    "TLE_LINE1": "1 62566U 25006N   25315.21131240 -.00014973  00000+0 -11341-3 0  9996",
    "TLE_LINE2": "2 62566  42.9998 134.5047 0002252 270.3322  89.7288 15.70834189 47966",
    "COMMENT": "Grouped by shell and plane from TLE"
  }
]